{
    "AL": { "name": "Office of the Secretary of State",
            "street1": "P.O. Box 5616",
            "city": "Montgomery",
            "state": "AL",
            "zip": "36103-5616"},
    "AK": { "name": "Division of Elections State of Alaska",
            "street1": "PO Box 110017",
            "city":"Juneau",
            "state": "AK",
            "zip": "99811-0017"},
    "AZ": { "name": "Secretary of State/Elections",
            "street1": "1700 W. Washington, 7th Floor",
            "city": "Phoenix",
            "state": "AZ",
            "zip": "85007-2888"},
    "AR": { "name": "Secretary of State",
            "street1": "Voter Services",
            "street2": "P.O. Box 8111",
            "city": "Little Rock",
            "state:": "AR",
            "zip": "72203-8111"},
    "CA": { "name": "Secretary of State Elections Division",
            "street1": "1500 11th Street",
            "city": "Sacramento",
            "state": "CA",
            "zip": "95814"},
    "CO": { "name": "Colorado Secretary of State",
            "street1": "1700 Broadway, Suite 270",
            "city": "Denver",
            "state": "CO",
            "zip": "80290"},
    "CT": { "name": "Secretary of State",
            "street1": "Elections Division",
            "street2": "30 Trinity Street",
            "city": "Hartford",
            "state": "CT",
            "zip": "06106"},
    "DE": { "name": "State of Delaware",
            "street1": "Office of the State Election Commissioner",
            "street2": "905 S. Governors Ave., Suite 170",
            "city": "Dover",
            "state": "DE",
            "zip": "19904"},
    "DC": { "name": "District of Columbia Board of Elections & Ethics",
            "street1": "441 4th Street, NW",
            "street2": "Suite 250",
            "city": "Washington",
            "state": "DC",
            "zip": "20001-2745"},
    "FL": { "name": "State of Florida Department of State â€“ Division of Elections",
            "street1": "The R.A. Gray Building",
            "street2": "500 South Bronough St, Rm 316",
            "city": "Tallahassee",
            "state": "FL",
            "zip": "32399-0250"},
    "GA": { "name": "Office of the Secretary of State - Elections Division",
            "street1": "2 Martin Luther King Jr. Drive",
            "street2": "Suite 802 Floyd West Tower",
            "city": "Atlanta",
            "state": "GA",
            "zip": "30334"},
    "HI": { "name": "Office of Elections",
            "street1": "State of Hawaii",
            "street2": "802 Lehua Avenue",
            "city": "Pearl City",
            "state": "HI",
            "zip": "96782"},
    "ID": { "name": "Secretary of State",
            "street1": "P.O. Box 83720",
            "street2": "State Capitol Bldg.",
            "city": "Boise",
            "state": "ID",
            "zip": "83720-0080"},
    "IL": { "name": "State Board of Elections",
            "street1": "2329 S. MacArthur Boulevard",
            "city": "Springfield",
            "state": "IL",
            "zip": "62704"},
    "IN": { "name": "Election Division",
            "street1": "Office of the Secretary of State",
            "street2": "302 West Washington Street, Room E-204",
            "city": "Indianapolis",
            "state": "IN",
            "zip": "46204-2743"},
    "IA": { "name": "Office of the Secretary of State - Elections Division",
            "street1": "Lucas Building-1st Floor",
            "street2": "321 E. 12th Street",
            "city": "Des Moines",
            "state": "IA",
            "zip": "50319"},
    "KS": { "name": "Secretary of State",
            "street1": "120 SW 10th Ave.",
            "street2": "1st Floor, Memorial Hall",
            "city": "Topeka",
            "state": "KS",
            "zip": "66612-1594"},
    "KY": { "name": "State Board of Elections",
            "street1": "140 Walnut Street",
            "city": "Frankfort",
            "state": "KY",
            "zip": "40601-3240"},
    "LA": { "name": "Secretary of State - Attention: Voter Registration",
            "street1": "P.O. Box 94125",
            "city": "Baton Rouge",
            "state": "LA",
            "zip": "70804-9125"},
    "ME": { "name": "Elections Division",
            "street1": "101 State House Station",
            "street2": "Bureau of Corporations, Elections and Commissions",
            "city": "Augusta",
            "state": "ME",
            "zip": "04333-0101"},
    "MD": { "name": "State Board of Elections",
            "street1": "P.O. Box 6486",
            "city": "Annapolis",
            "state": "MD",
            "zip": "21401-0486"},
    "MA": { "name": "Secretary of the Commonwealth",
            "street1": "One Ashburton Place",
            "street2": "Elections Division, Room 1705",
            "city": "Boston",
            "state": "MA",
            "zip": "02108"},
    "MI": { "name": "Michigan Department of State",
            "street1": "Bureau of Elections",
            "street2": "P.O. Box 20126",
            "city": "Lansing",
            "state": "MI",
            "zip": "48901-0726"},
    "MN": { "name": "Secretary of State",
            "street1": "60 Empire Drive, Suite 100",
            "city": "St. Paul",
            "state": "MN",
            "zip": "55103-1855"},
    "MS": { "name": "Secretary of State",
            "street1": "P.O. Box 136",
            "city": "Jackson",
            "state": "MS",
            "zip": "39205-0136"},
    "MO": { "name": "Secretary of State",
            "street1": "P.O. Box 1767",
            "city": "Jefferson City",
            "state": "MO",
            "zip": "65102-1767"},
    "MT": { "name": "Secretary of State's Office",
            "street1": "State Capitol",
            "street2": "P.O. Box 202801",
            "city": "Helena",
            "state": "MT",
            "zip": "59620-2801"},
    "NE": { "name": "Nebraska Secretary of State",
            "street1": "Suite 2300, State Capitol Bldg.",
            "city": "Lincoln",
            "state": "NE",
            "zip": "68509-4608"},
    "NV": { "name": "Secretary of State - Elections Division",
            "street1": "101 North Carson Street, Suite 3",
            "city": "Carson City",
            "state": "NV",
            "zip": "89701-4786"},
    "NH": { "warning": "The application should be mailed to your town or city clerk listed at www.state.nh.us/sos/clerks.htm"},
    "NJ": { "name": "New Jersey Department of Law and Public Safety",
            "street1": "PO BOX 304",
            "street2": "Division of Elections",
            "city": "Trenton",
            "state": "NJ",
            "zip": "08625-0304"},
    "NM": { "name": "Bureau of Elections",
            "street1": "325 Don Gaspar, Suite 300",
            "city": "Santa Fe",
            "state": "NM",
            "zip": "87503"},
    "NY": { "name": "NYS Board of Elections",
            "street1": "40 North Pearl Street, Suite 5",
            "city": "Albany",
            "state": "NY",
            "zip": "12207-2729"},
    "NC": { "name": "State Board of Elections",
            "street1": "P.O. Box 27255",
            "city": "Raleigh",
            "state": "NC",
            "zip": "27611-7255"},
    "ND": { "warning": "North Dakota does not have voter registration."},
    "OH": { "name": "Secretary of State of Ohio",
            "street1": "180 E. Broad Street - 15th Floor",
            "street2": "Elections Division",
            "city": "Columbus",
            "state": "OH",
            "zip": "43215"},
    "OK": { "name": "Oklahoma State Election Board",
            "street1": "Box 528800",
            "city": "Oklahoma City",
            "state": "OK",
            "zip": "73152-8800"},
    "OR": { "name": "Secretary of State",
            "street1": "141 State Capitol",
            "street2": "Elections Division",
            "city": "Salem",
            "state": "OR",
            "zip": "97310-0722"},
    "PA": { "name": "Office of the Secretary of the Commonwealth",
            "street1": "210 North Ofice Bldg.",
            "city": "Harrisburg",
            "state": "PA",
            "zip": "17120-0029"},
    "RI": { "name": "Rhode Island State Board of Elections",
            "street1": "50 Branch Ave.",
            "city": "Providence",
            "state": "RI",
            "zip": "02904-2790"},
    "SC": { "name": "State Election Commission",
            "street1": "P.O. Box 5987",
            "city": "Columbia",
            "state": "SC",
            "zip": "29250-5987"},
    "SD": { "name": "Elections, Secretary of State",
            "street1": "500 E. Capitol",
            "city": "Pierre",
            "state": "SD",
            "zip": "57501-5070"},
    "TN": { "name": "Coordinator of Elections",
            "street1": "Tennessee Tower, Seventh Floor",
            "street2": "312 Rosa L. Parks Ave.",
            "city": "Nashville",
            "state": "TN",
            "zip": "37243-1102"},
    "TX": { "name": "Office of the Secretary of State",
            "street1": "Elections Division",
            "street2": "P.O. Box 12060",
            "city": "Austin",
            "state": "TX",
            "zip": "78711-2060"},
    "UT": { "name": "Office of the Lieutenant Governor",
            "street1": "P.O. Box 142325",
            "city": "Salt Lake City",
            "state": "UT",
            "zip": "84114"},
    "VT": { "name": "Office of the Secretary of State",
            "street1": "Director of Elections",
            "street2": "26 Terrace Street",
            "city": "Montpelier",
            "state": "VT",
            "zip": "05609-1101"},
    "VA": { "name": "Virginia State Board of Elections",
            "street1": "1100 Bank Street, 1st floor",
            "city": "Richmond",
            "state": "VA",
            "zip": "23219"},
    "WA": { "name": "Secretary of State Elections Division",
            "street1": "P.O. Box 40229",
            "city": "Olympia",
            "state": "WA",
            "zip": "98504-0229"},
    "WV": { "name": "Secretary of State",
            "street1": "Building 1, Suite 157-K",
            "street2": "1900 Kanawha Blvd.",
            "city": "East Charleston",
            "state": "WV",
            "zip": "25305-0770"},
    "WI": { "name": "Government Accountability Board",
            "street1": "212 East Washington Avenue, Third Floor",
            "street2": "P.O. Box 7984",
            "city": "Madison",
            "state": "WI",
            "zip": "53707-7984"},
    "WY": { "warning": "Wyoming by law, cannot accept this form unless State law is changed."}
}
